{"spkid": "50726619", "covariance": {"elements": [{"name": "e", "sigma": 3.00038650691129e-07, "value": ".09095923459623943", "title": "eccentricity", "units": null, "label": "e"}, {"label": "q", "name": "q", "sigma": 2.30982738381605e-07, "title": "perihelion distance", "value": ".925954411457436", "units": "au"}, {"label": "tp", "title": "time of perihelion passage", "value": "2457742.242800520911", "units": "TDB", "sigma": 1.43356733511555e-05, "name": "tp"}, {"label": "node", "units": "deg", "value": "144.5916164618438", "title": "longitude of the ascending node", "name": "om", "sigma": 5.55178449891395e-06}, {"label": "peri", "name": "w", "sigma": 3.4374269802167e-05, "value": "299.5433348409113", "title": "argument of perihelion", "units": "deg"}, {"title": "inclination", "value": "12.88167979755772", "units": "deg", "name": "i", "sigma": 3.65591381675233e-05, "label": "i"}], "data": [["9.002319190855337E-14", "-6.92918254335529E-14", "-3.067714091738055E-12", "7.970741117538165E-13", "-9.653383629979512E-12", "1.046452821934623E-11"], ["-6.92918254335529E-14", "5.335302543026505E-14", "2.34257430422052E-12", "-6.06473776957401E-13", "7.394572198764657E-12", "-8.08574370034192E-12"], ["-3.067714091738055E-12", "2.34257430422052E-12", "2.055115304310309E-10", "-2.646545965391314E-11", "4.330209976187353E-10", "-3.492887822244327E-10"], ["7.970741117538165E-13", "-6.06473776957401E-13", "-2.646545965391314E-11", "3.082231112238127E-11", "-1.128881759335165E-10", "8.799278993937531E-11"], ["-9.653383629979512E-12", "7.394572198764657E-12", "4.330209976187353E-10", "-1.128881759335165E-10", "1.181590424432172E-9", "-1.088227697975618E-9"], ["1.046452821934623E-11", "-8.08574370034192E-12", "-3.492887822244327E-10", "8.799278993937531E-11", "-1.088227697975618E-9", "1.336570583552062E-9"]], "labels": ["e", "q", "tp", "node", "peri", "i"], "epoch": "2457578.5"}, "elements": [{"title": "eccentricity", "value": ".09068944809603774", "units": null, "sigma": "2.9959E-7", "name": "e", "label": "e"}, {"units": "au", "title": "semi-major axis", "value": "1.018464150633902", "sigma": "7.777E-8", "name": "a", "label": "a"}, {"label": "q", "name": "q", "sigma": "2.3447E-7", "title": "perihelion distance", "value": ".9261001989073134", "units": "au"}, {"label": "i", "title": "inclination; angle with respect to x-y ecliptic plane", "value": "12.88125144480765", "units": "deg", "sigma": "3.6592E-5", "name": "i"}, {"title": "longitude of the ascending node", "value": "144.4602831943707", "units": "deg", "name": "om", "sigma": "6.1136E-6", "label": "node"}, {"label": "peri", "sigma": "2.7429E-5", "name": "w", "units": "deg", "title": "argument of perihelion", "value": "298.7881916005937"}, {"label": "M", "units": "deg", "title": "mean anomaly", "value": "77.26396231056536", "sigma": ".00039176", "name": "ma"}, {"title": "time of perihelion passage", "value": "2461119.926631142132", "units": "TDB", "sigma": ".00039931", "name": "tp", "label": "tp"}, {"sigma": "4.3E-5", "name": "per", "units": "d", "value": "375.4196901297931", "title": "sidereal orbital period", "label": "period"}, {"label": "n", "units": "deg/d", "title": "mean motion", "value": ".958926794371222", "sigma": "1.0983E-7", "name": "n"}, {"label": "Q", "units": "au", "title": "aphelion distance", "value": "1.11082810236049", "name": "ad", "sigma": "8.4822E-8"}], "epoch": "2461200.5"}